{"type": "FeatureCollection", "features": [ {"type": "Feature", "properties": {"norad_id": 17070, "name": "POLAR BEAR", "group": "nnss", "lat": -18.412645326230752, "lon": 3.4710663837137896, "alt_km": 996.1218400718653, "timestamp": "2025-12-23T11:34:48.432940+00:00", "meta": {"OBJECT_NAME": "POLAR BEAR", "OBJECT_ID": "1986-088A", "EPOCH": "2025-12-23T00:55:53.241888", "MEAN_MOTION": 13.7525287, "ECCENTRICITY": 0.0041291, "INCLINATION": 89.6171, "RA_OF_ASC_NODE": 183.3614, "ARG_OF_PERICENTER": 89.6168, "MEAN_ANOMALY": 72.8852, "EPHEMERIS_TYPE": 0, "CLASSIFICATION_TYPE": "U", "NORAD_CAT_ID": 17070, "ELEMENT_SET_NO": 999, "REV_AT_EPOCH": 96120, "BSTAR": 9.1662e-05, "MEAN_MOTION_DOT": 1e-06, "MEAN_MOTION_DDOT": 0}, "tle": {"line1": "1 17070U 86088A   25357.03881067  .00000100  00000+0  91662-4 0  9998", "line2": "2 17070  89.6171 183.3614 0041291  89.6168  72.8852 13.75252870961200"}}, "geometry": {"type": "Point", "coordinates": [3.4710663837137896, -18.412645326230752]}}, {"type": "Feature", "properties": {"norad_id": 18361, "name": "OSCAR 27", "group": "nnss", "lat": 3.488480435393556, "lon": 79.65123954806276, "alt_km": 1170.0103278205997, "timestamp": "2025-12-23T11:34:48.432950+00:00", "meta": {"OBJECT_NAME": "OSCAR 27", "OBJECT_ID": "1987-080A", "EPOCH": "2025-12-22T19:29:31.902720", "MEAN_MOTION": 13.4490871, "ECCENTRICITY": 0.01037536, "INCLINATION": 90.3738, "RA_OF_ASC_NODE": 79.649, "ARG_OF_PERICENTER": 194.7719, "MEAN_ANOMALY": 165.0392, "EPHEMERIS_TYPE": 0, "CLASSIFICATION_TYPE": "U", "NORAD_CAT_ID": 18361, "ELEMENT_SET_NO": 999, "REV_AT_EPOCH": 87692, "BSTAR": 0.00017203932, "MEAN_MOTION_DOT": 1.12e-06, "MEAN_MOTION_DDOT": 0}, "tle": {"line1": "1 18361U 87080A   25356.81217480  .00000112  00000+0  17204-3 0  9994", "line2": "2 18361  90.3738  79.6490 0103753 194.7719 165.0392 13.44908710876928"}}, "geometry": {"type": "Point", "coordinates": [79.65123954806276, 3.488480435393556]}}, {"type": "Feature", "properties": {"norad_id": 18362, "name": "OSCAR 29", "group": "nnss", "lat": -1.481682603781774, "lon": 80.14349952985701, "alt_km": 1157.6267163651337, "timestamp": "2025-12-23T11:34:48.432959+00:00", "meta": {"OBJECT_NAME": "OSCAR 29", "OBJECT_ID": "1987-080B", "EPOCH": "2025-12-22T20:08:15.720576", "MEAN_MOTION": 13.44450285, "ECCENTRICITY": 0.01045724, "INCLINATION": 90.375, "RA_OF_ASC_NODE": 80.1097, "ARG_OF_PERICENTER": 217.9075, "MEAN_ANOMALY": 267.5994, "EPHEMERIS_TYPE": 0, "CLASSIFICATION_TYPE": "U", "NORAD_CAT_ID": 18362, "ELEMENT_SET_NO": 999, "REV_AT_EPOCH": 87645, "BSTAR": 0.00017076308, "MEAN_MOTION_DOT": 1.1e-06, "MEAN_MOTION_DDOT": 0}, "tle": {"line1": "1 18362U 87080B   25356.83907084  .00000110  00000+0  17076-3 0  9998", "line2": "2 18362  90.3750  80.1097 0104572 217.9075 267.5994 13.44450285876459"}}, "geometry": {"type": "Point", "coordinates": [80.14349952985701, -1.481682603781774]}}, {"type": "Feature", "properties": {"norad_id": 19070, "name": "OSCAR 23", "group": "nnss", "lat": -31.774615075089933, "lon": -163.47327235003306, "alt_km": 1090.7752129140245, "timestamp": "2025-12-23T11:34:48.432969+00:00", "meta": {"OBJECT_NAME": "OSCAR 23", "OBJECT_ID": "1988-033A", "EPOCH": "2025-12-23T01:46:21.934272", "MEAN_MOTION": 13.27788834, "ECCENTRICITY": 0.0190353, "INCLINATION": 90.3204, "RA_OF_ASC_NODE": 16.7126, "ARG_OF_PERICENTER": 151.2472, "MEAN_ANOMALY": 266.342, "EPHEMERIS_TYPE": 0, "CLASSIFICATION_TYPE": "U", "NORAD_CAT_ID": 19070, "ELEMENT_SET_NO": 999, "REV_AT_EPOCH": 82390, "BSTAR": 0.00016035, "MEAN_MOTION_DOT": 8.9e-07, "MEAN_MOTION_DDOT": 0}, "tle": {"line1": "1 19070U 88033A   25357.07386498  .00000089  00000+0  16035-3 0  9990", "line2": "2 19070  90.3204  16.7126 0190353 151.2472 266.3420 13.27788834823909"}}, "geometry": {"type": "Point", "coordinates": [-163.47327235003306, -31.774615075089933]}}, {"type": "Feature", "properties": {"norad_id": 19071, "name": "OSCAR 32", "group": "nnss", "lat": -33.92292550766887, "lon": 17.073735425496913, "alt_km": 1301.2800526048622, "timestamp": "2025-12-23T11:34:48.432978+00:00", "meta": {"OBJECT_NAME": "OSCAR 32", "OBJECT_ID": "1988-033B", "EPOCH": "2025-12-23T03:03:44.614080", "MEAN_MOTION": 13.27955615, "ECCENTRICITY": 0.0189119, "INCLINATION": 90.3208, "RA_OF_ASC_NODE": 16.8468, "ARG_OF_PERICENTER": 138.0201, "MEAN_ANOMALY": 292.8175, "EPHEMERIS_TYPE": 0, "CLASSIFICATION_TYPE": "U", "NORAD_CAT_ID": 19071, "ELEMENT_SET_NO": 999, "REV_AT_EPOCH": 82403, "BSTAR": 0.00014379, "MEAN_MOTION_DOT": 8.1e-07, "MEAN_MOTION_DDOT": 0}, "tle": {"line1": "1 19071U 88033B   25357.12759970  .00000081  00000+0  14379-3 0  9997", "line2": "2 19071  90.3208  16.8468 0189119 138.0201 292.8175 13.27955615824034"}}, "geometry": {"type": "Point", "coordinates": [17.073735425496913, -33.92292550766887]}}, {"type": "Feature", "properties": {"norad_id": 19223, "name": "NOVA 2", "group": "nnss", "lat": -30.25494009038201, "lon": 78.25130719967675, "alt_km": 1158.0361956876668, "timestamp": "2025-12-23T11:34:48.432988+00:00", "meta": {"OBJECT_NAME": "NOVA 2", "OBJECT_ID": "1988-052A", "EPOCH": "2025-12-22T19:59:41.866944", "MEAN_MOTION": 13.22936943, "ECCENTRICITY": 0.00297225, "INCLINATION": 89.9867, "RA_OF_ASC_NODE": 78.2599, "ARG_OF_PERICENTER": 349.0095, "MEAN_ANOMALY": 130.0034, "EPHEMERIS_TYPE": 0, "CLASSIFICATION_TYPE": "U", "NORAD_CAT_ID": 19223, "ELEMENT_SET_NO": 999, "REV_AT_EPOCH": 81081, "BSTAR": 0.00019678035, "MEAN_MOTION_DOT": 9.1e-07, "MEAN_MOTION_DDOT": 0}, "tle": {"line1": "1 19223U 88052A   25356.83312346  .00000091  00000+0  19678-3 0  9994", "line2": "2 19223  89.9867  78.2599 0029722 349.0095 130.0034 13.22936943810819"}}, "geometry": {"type": "Point", "coordinates": [78.25130719967675, -30.25494009038201]}}, {"type": "Feature", "properties": {"norad_id": 19419, "name": "OSCAR 25", "group": "nnss", "lat": 85.6535441908221, "lon": 19.835343409847916, "alt_km": 1136.5208287659761, "timestamp": "2025-12-23T11:34:48.432997+00:00", "meta": {"OBJECT_NAME": "OSCAR 25", "OBJECT_ID": "1988-074A", "EPOCH": "2025-12-23T02:17:56.668128", "MEAN_MOTION": 13.42625234, "ECCENTRICITY": 0.009505, "INCLINATION": 90.0337, "RA_OF_ASC_NODE": 20.2777, "ARG_OF_PERICENTER": 215.8861, "MEAN_ANOMALY": 162.583, "EPHEMERIS_TYPE": 0, "CLASSIFICATION_TYPE": "U", "NORAD_CAT_ID": 19419, "ELEMENT_SET_NO": 999, "REV_AT_EPOCH": 82779, "BSTAR": 0.00013648, "MEAN_MOTION_DOT": 8.8e-07, "MEAN_MOTION_DDOT": 0}, "tle": {"line1": "1 19419U 88074A   25357.09579477  .00000088  00000+0  13648-3 0  9991", "line2": "2 19419  90.0337  20.2777 0095050 215.8861 162.5830 13.42625234827793"}}, "geometry": {"type": "Point", "coordinates": [19.835343409847916, 85.6535441908221]}}, {"type": "Feature", "properties": {"norad_id": 19420, "name": "OSCAR 31", "group": "nnss", "lat": -30.39801843341865, "lon": 20.651523989820525, "alt_km": 1140.915045943415, "timestamp": "2025-12-23T11:34:48.433007+00:00", "meta": {"OBJECT_NAME": "OSCAR 31", "OBJECT_ID": "1988-074B", "EPOCH": "2025-12-23T03:06:15.438240", "MEAN_MOTION": 13.42586375, "ECCENTRICITY": 0.0093436, "INCLINATION": 90.0354, "RA_OF_ASC_NODE": 20.6295, "ARG_OF_PERICENTER": 209.9326, "MEAN_ANOMALY": 212.9273, "EPHEMERIS_TYPE": 0, "CLASSIFICATION_TYPE": "U", "NORAD_CAT_ID": 19420, "ELEMENT_SET_NO": 999, "REV_AT_EPOCH": 82790, "BSTAR": 0.0001264, "MEAN_MOTION_DOT": 8.2e-07, "MEAN_MOTION_DDOT": 0}, "tle": {"line1": "1 19420U 88074B   25357.12934535  .00000082  00000+0  12640-3 0  9992", "line2": "2 19420  90.0354  20.6295 0093436 209.9326 212.9273 13.42586375827905"}}, "geometry": {"type": "Point", "coordinates": [20.651523989820525, -30.39801843341865]}}]}